SL-16 R/B               
1 23705U 95058B   17345.52265889 -.00000277  00000-0 -11815-3 0  9996
2 23705  71.0226  16.9749 0011644  16.0945 344.0545 14.15108266141975
